{
  "type": "FeatureCollection",
  "features": [
    {
      "type": "Feature",
      "properties": {
        "name": "No-Go 2",
        "kind": "raw_exclusion"
      },
      "geometry": {
        "type": "Polygon",
        "coordinates": [
          [
            [
              77.42072991706932,
              28.615183554068587
            ],
            [
              77.42207182524596,
              28.614881661512058
            ],
            [
              77.42424357476227,
              28.615495317115105
            ],
            [
              77.42114636197034,
              28.61684586312175
            ],
            [
              77.4203363104515,
              28.61624129043023
            ],
            [
              77.42072991706932,
              28.615183554068587
            ]
          ]
        ]
      }
    },
    {
      "type": "Feature",
      "properties": {
        "name": "No-Go 2 + 10 m clearance",
        "kind": "buffered_exclusion"
      },
      "geometry": {
        "type": "Polygon",
        "coordinates": [
          [
            [
              77.42065029956049,
              28.61510837763781
            ],
            [
              77.42021769698995,
              28.616270904498407
            ],
            [
              77.42113153941473,
              28.616952940608993
            ],
            [
              77.42451538553922,
              28.615477404077957
            ],
            [
              77.42207502980197,
              28.614787852627874
            ],
            [
              77.42065029956049,
              28.61510837763781
            ]
          ]
        ]
      }
    },
    {
      "type": "Feature",
      "properties": {
        "vehicle_id": "drone-1",
        "phase": "generated_safe_return_and_land",
        "passed": true
      },
      "geometry": {
        "type": "LineString",
        "coordinates": [
          [
            77.4221907,
            28.6192459
          ],
          [
            77.4221795,
            28.6192233
          ],
          [
            77.4221529,
            28.619186599999995
          ],
          [
            77.4221067,
            28.6191226
          ],
          [
            77.4220579,
            28.6190573
          ],
          [
            77.4220049,
            28.61898679999999
          ],
          [
            77.4219512,
            28.618914599999997
          ],
          [
            77.4218968,
            28.618841399999997
          ],
          [
            77.4218419,
            28.618767499999997
          ],
          [
            77.4217868,
            28.618693399999998
          ],
          [
            77.4217314,
            28.618618899999998
          ],
          [
            77.421676,
            28.618544299999996
          ],
          [
            77.4216203,
            28.618469399999995
          ],
          [
            77.4215647,
            28.618394599999995
          ],
          [
            77.4214981,
            28.6183049
          ],
          [
            77.4214424,
            28.618229999999993
          ],
          [
            77.4213866,
            28.618154799999992
          ],
          [
            77.4213307,
            28.618079699999992
          ],
          [
            77.42127480000002,
            28.618004399999997
          ],
          [
            77.4212189,
            28.6179293
          ],
          [
            77.4211631,
            28.617854099999995
          ],
          [
            77.4211073,
            28.617778899999998
          ],
          [
            77.4210514,
            28.6177037
          ],
          [
            77.42099550000002,
            28.617628599999996
          ],
          [
            77.4209396,
            28.6175533
          ],
          [
            77.4208838,
            28.617478099999996
          ],
          [
            77.4208281,
            28.617403199999988
          ],
          [
            77.4207614,
            28.6173134
          ],
          [
            77.4207056,
            28.6172383
          ],
          [
            77.4206498,
            28.617163299999998
          ],
          [
            77.4205939,
            28.617087999999995
          ],
          [
            77.420538,
            28.617012799999994
          ],
          [
            77.4204821,
            28.616937499999995
          ],
          [
            77.4204263,
            28.61686239999999
          ],
          [
            77.4203704,
            28.6167871
          ],
          [
            77.4203145,
            28.616711899999995
          ],
          [
            77.4202586,
            28.616636699999994
          ],
          [
            77.4202028,
            28.616561599999997
          ],
          [
            77.420147,
            28.616486399999996
          ],
          [
            77.4200911,
            28.616411200000005
          ],
          [
            77.4200245,
            28.616321599999996
          ],
          [
            77.4199741,
            28.6162537
          ],
          [
            77.4199363,
            28.6161988
          ],
          [
            77.4199184,
            28.616153599999997
          ],
          [
            77.4199234,
            28.616109000000005
          ],
          [
            77.4199464,
            28.616055299999996
          ],
          [
            77.41997920000001,
            28.6159882
          ],
          [
            77.4200159,
            28.6159123
          ],
          [
            77.4200542,
            28.615832499999996
          ],
          [
            77.4200924,
            28.615750699999996
          ],
          [
            77.4201302,
            28.615668500000005
          ],
          [
            77.4201681,
            28.6155862
          ],
          [
            77.420206,
            28.615503900000004
          ],
          [
            77.4202516,
            28.6154048
          ],
          [
            77.4202895,
            28.6153223
          ],
          [
            77.4203275,
            28.615239499999998
          ],
          [
            77.4203655,
            28.615156600000002
          ],
          [
            77.4204038,
            28.6150733
          ],
          [
            77.420442,
            28.614989999999995
          ],
          [
            77.4204803,
            28.614906599999998
          ],
          [
            77.4205185,
            28.614823399999995
          ],
          [
            77.4205566,
            28.6147401
          ],
          [
            77.4205948,
            28.614656900000004
          ],
          [
            77.4206331,
            28.6145735
          ],
          [
            77.42067120000002,
            28.614490299999996
          ],
          [
            77.4207171,
            28.614390199999995
          ],
          [
            77.4207554,
            28.614307
          ],
          [
            77.4207934,
            28.614224
          ],
          [
            77.4208314,
            28.6141411
          ],
          [
            77.4208696,
            28.614057799999998
          ],
          [
            77.4209078,
            28.613974599999995
          ],
          [
            77.420946,
            28.61389120000001
          ],
          [
            77.4209842,
            28.6138079
          ],
          [
            77.4210225,
            28.6137245
          ],
          [
            77.4210607,
            28.6136412
          ],
          [
            77.4210982,
            28.613559500000004
          ],
          [
            77.4211312,
            28.613487700000004
          ],
          [
            77.421156,
            28.613434099999996
          ],
          [
            77.4211723,
            28.6133988
          ],
          [
            77.4211758,
            28.6133908
          ],
          [
            77.4211752,
            28.613391999999997
          ],
          [
            77.4211742,
            28.613393600000002
          ],
          [
            77.4211736,
            28.613394499999995
          ],
          [
            77.4211731,
            28.6133956
          ],
          [
            77.4211728,
            28.6133962
          ],
          [
            77.42117270000001,
            28.613396500000004
          ],
          [
            77.42117270000001,
            28.6133967
          ],
          [
            77.42117270000001,
            28.6133969
          ],
          [
            77.4211726,
            28.613396999999992
          ],
          [
            77.4211726,
            28.61339709999999
          ],
          [
            77.4211726,
            28.61339709999999
          ],
          [
            77.4211726,
            28.613397199999994
          ],
          [
            77.4211726,
            28.613397199999994
          ],
          [
            77.4211725,
            28.6133972
          ],
          [
            77.4211725,
            28.6133972
          ],
          [
            77.4211725,
            28.6133972
          ],
          [
            77.4211725,
            28.613397299999995
          ],
          [
            77.4211725,
            28.613397299999995
          ],
          [
            77.4211725,
            28.613397299999995
          ],
          [
            77.4211725,
            28.613397299999995
          ],
          [
            77.4211725,
            28.613397299999995
          ],
          [
            77.4211725,
            28.613397299999995
          ],
          [
            77.4211725,
            28.613397299999995
          ],
          [
            77.4211725,
            28.613397299999995
          ],
          [
            77.4211725,
            28.613397299999995
          ],
          [
            77.4211725,
            28.613397299999995
          ],
          [
            77.4211725,
            28.613397299999995
          ],
          [
            77.4211725,
            28.613397299999995
          ],
          [
            77.4211725,
            28.613397299999995
          ],
          [
            77.4211725,
            28.613397299999995
          ],
          [
            77.4211725,
            28.613397299999995
          ],
          [
            77.4211725,
            28.613397299999995
          ]
        ]
      }
    },
    {
      "type": "Feature",
      "properties": {
        "vehicle_id": "drone-2",
        "phase": "generated_safe_return_and_land",
        "passed": true
      },
      "geometry": {
        "type": "LineString",
        "coordinates": [
          [
            77.422201,
            28.619250700000002
          ],
          [
            77.4222,
            28.619248199999998
          ],
          [
            77.42219340000001,
            28.619238899999996
          ],
          [
            77.422179,
            28.619217999999996
          ],
          [
            77.4221547,
            28.6191814
          ],
          [
            77.4221197,
            28.619129299999997
          ],
          [
            77.4220759,
            28.6190646
          ],
          [
            77.4220175,
            28.618978499999997
          ],
          [
            77.4219676,
            28.6189047
          ],
          [
            77.421917,
            28.618829899999998
          ],
          [
            77.42186590000001,
            28.618754399999997
          ],
          [
            77.4218145,
            28.6186781
          ],
          [
            77.4217628,
            28.618601500000004
          ],
          [
            77.4217109,
            28.61852469999999
          ],
          [
            77.421659,
            28.6184478
          ],
          [
            77.4216074,
            28.61837119999999
          ],
          [
            77.4215554,
            28.618294199999998
          ],
          [
            77.4215032,
            28.618216899999993
          ],
          [
            77.421451,
            28.618139399999997
          ],
          [
            77.4213988,
            28.618062200000008
          ],
          [
            77.4213363,
            28.6179695
          ],
          [
            77.4212843,
            28.617892499999996
          ],
          [
            77.42123220000002,
            28.6178152
          ],
          [
            77.4211799,
            28.6177378
          ],
          [
            77.42112770000001,
            28.6176604
          ],
          [
            77.4210757,
            28.6175833
          ],
          [
            77.42102360000001,
            28.617506199999998
          ],
          [
            77.4209713,
            28.61742859999999
          ],
          [
            77.4209191,
            28.617351399999997
          ],
          [
            77.4208669,
            28.6172739
          ],
          [
            77.420815,
            28.617197
          ],
          [
            77.4207629,
            28.617119799999998
          ],
          [
            77.4207107,
            28.6170425
          ],
          [
            77.42064790000002,
            28.616949399999996
          ],
          [
            77.4205958,
            28.616872099999995
          ],
          [
            77.4205437,
            28.616795
          ],
          [
            77.4204919,
            28.616718199999998
          ],
          [
            77.4204397,
            28.616640799999995
          ],
          [
            77.4203874,
            28.616563299999996
          ],
          [
            77.4203351,
            28.616485800000003
          ],
          [
            77.4202851,
            28.616411800000005
          ],
          [
            77.4202427,
            28.616348000000002
          ],
          [
            77.4202148,
            28.616294700000005
          ],
          [
            77.4202064,
            28.616245099999997
          ],
          [
            77.420217,
            28.616191200000003
          ],
          [
            77.4202453,
            28.6161111
          ],
          [
            77.4202736,
            28.616033400000003
          ],
          [
            77.4203033,
            28.615950799999993
          ],
          [
            77.4203329,
            28.615865999999997
          ],
          [
            77.4203622,
            28.615780399999995
          ],
          [
            77.4203912,
            28.615695099999996
          ],
          [
            77.4204203,
            28.61561
          ],
          [
            77.4204495,
            28.615524500000003
          ],
          [
            77.4204787,
            28.615438800000003
          ],
          [
            77.420508,
            28.6153529
          ],
          [
            77.4205372,
            28.615266999999996
          ],
          [
            77.4205662,
            28.615181599999996
          ],
          [
            77.4205954,
            28.6150958
          ],
          [
            77.4206306,
            28.614992300000004
          ],
          [
            77.4206599,
            28.614906099999992
          ],
          [
            77.4206892,
            28.614819999999998
          ],
          [
            77.4207184,
            28.614733899999997
          ],
          [
            77.4207475,
            28.614648199999994
          ],
          [
            77.4207768,
            28.614562099999997
          ],
          [
            77.4208061,
            28.614475799999997
          ],
          [
            77.4208354,
            28.6143898
          ],
          [
            77.4208646,
            28.6143038
          ],
          [
            77.4208938,
            28.614217900000003
          ],
          [
            77.4209231,
            28.614131499999996
          ],
          [
            77.4209524,
            28.6140455
          ],
          [
            77.4209876,
            28.613941999999998
          ],
          [
            77.4210167,
            28.6138564
          ],
          [
            77.4210459,
            28.613770300000002
          ],
          [
            77.4210752,
            28.6136842
          ],
          [
            77.42110440000002,
            28.613598399999997
          ],
          [
            77.4211312,
            28.6135193
          ],
          [
            77.4211528,
            28.613455499999997
          ],
          [
            77.421167,
            28.613413299999998
          ],
          [
            77.4211738,
            28.613393499999997
          ],
          [
            77.421175,
            28.613390199999998
          ],
          [
            77.4211745,
            28.6133924
          ],
          [
            77.4211742,
            28.613393700000003
          ],
          [
            77.42117390000001,
            28.613394799999995
          ],
          [
            77.42117350000001,
            28.613395899999993
          ],
          [
            77.4211733,
            28.613396299999994
          ],
          [
            77.4211732,
            28.613396499999997
          ],
          [
            77.4211731,
            28.613396699999996
          ],
          [
            77.421173,
            28.613396799999997
          ],
          [
            77.421173,
            28.613396799999997
          ],
          [
            77.421173,
            28.613396899999998
          ],
          [
            77.421173,
            28.613396999999992
          ],
          [
            77.4211729,
            28.613396999999992
          ],
          [
            77.4211729,
            28.613396999999992
          ],
          [
            77.4211729,
            28.613396999999992
          ],
          [
            77.4211729,
            28.613396999999992
          ],
          [
            77.4211729,
            28.613396999999992
          ],
          [
            77.4211729,
            28.613396999999992
          ],
          [
            77.4211729,
            28.61339709999999
          ],
          [
            77.4211729,
            28.61339709999999
          ],
          [
            77.4211729,
            28.61339709999999
          ],
          [
            77.4211729,
            28.61339709999999
          ],
          [
            77.4211729,
            28.61339709999999
          ],
          [
            77.4211729,
            28.61339709999999
          ],
          [
            77.4211729,
            28.61339709999999
          ],
          [
            77.4211729,
            28.61339709999999
          ],
          [
            77.4211729,
            28.61339709999999
          ],
          [
            77.4211729,
            28.61339709999999
          ],
          [
            77.4211729,
            28.61339709999999
          ],
          [
            77.4211729,
            28.61339709999999
          ],
          [
            77.4211729,
            28.61339709999999
          ],
          [
            77.4211729,
            28.61339709999999
          ]
        ]
      }
    },
    {
      "type": "Feature",
      "properties": {
        "vehicle_id": "drone-3",
        "phase": "generated_safe_return_and_land",
        "passed": true
      },
      "geometry": {
        "type": "LineString",
        "coordinates": [
          [
            77.421576,
            28.613436299999993
          ],
          [
            77.4215444,
            28.6134306
          ],
          [
            77.4214888,
            28.6134256
          ],
          [
            77.4214211,
            28.613418799999994
          ],
          [
            77.4213343,
            28.613411199999998
          ],
          [
            77.4212654,
            28.6134053
          ],
          [
            77.4212102,
            28.613400400000003
          ],
          [
            77.4211783,
            28.6133975
          ],
          [
            77.4211682,
            28.613396599999998
          ],
          [
            77.4211686,
            28.613396699999996
          ],
          [
            77.4211698,
            28.613396899999998
          ],
          [
            77.4211706,
            28.61339709999999
          ],
          [
            77.42117150000001,
            28.613397299999995
          ],
          [
            77.421172,
            28.613397400000004
          ],
          [
            77.4211723,
            28.6133974
          ],
          [
            77.4211724,
            28.6133974
          ],
          [
            77.4211725,
            28.6133974
          ],
          [
            77.4211726,
            28.613397399999997
          ],
          [
            77.4211726,
            28.613397399999997
          ],
          [
            77.42117270000001,
            28.613397400000004
          ],
          [
            77.4211728,
            28.613397399999997
          ],
          [
            77.4211728,
            28.613397399999997
          ],
          [
            77.4211728,
            28.613397399999997
          ],
          [
            77.4211728,
            28.613397399999997
          ],
          [
            77.4211728,
            28.613397399999997
          ],
          [
            77.4211728,
            28.613397399999997
          ],
          [
            77.4211728,
            28.613397399999997
          ],
          [
            77.4211728,
            28.613397399999997
          ],
          [
            77.4211728,
            28.613397399999997
          ],
          [
            77.4211728,
            28.613397399999997
          ],
          [
            77.4211728,
            28.613397399999997
          ],
          [
            77.4211728,
            28.613397399999997
          ],
          [
            77.4211728,
            28.613397399999997
          ],
          [
            77.4211728,
            28.613397399999997
          ],
          [
            77.4211728,
            28.613397399999997
          ],
          [
            77.4211728,
            28.613397399999997
          ],
          [
            77.4211728,
            28.613397399999997
          ],
          [
            77.4211728,
            28.613397399999997
          ],
          [
            77.4211728,
            28.613397399999997
          ],
          [
            77.4211728,
            28.613397399999997
          ],
          [
            77.4211728,
            28.613397399999997
          ]
        ]
      }
    },
    {
      "type": "Feature",
      "properties": {
        "vehicle_id": "drone-4",
        "phase": "generated_safe_return_and_land",
        "passed": true
      },
      "geometry": {
        "type": "LineString",
        "coordinates": [
          [
            77.4228202,
            28.618009899999997
          ],
          [
            77.422815,
            28.618007299999995
          ],
          [
            77.4227994,
            28.617998000000004
          ],
          [
            77.4227673,
            28.617978599999994
          ],
          [
            77.4227173,
            28.617948199999997
          ],
          [
            77.4226513,
            28.617907799999998
          ],
          [
            77.4225598,
            28.617851599999998
          ],
          [
            77.4224796,
            28.617802499999996
          ],
          [
            77.4223985,
            28.617752700000004
          ],
          [
            77.4223165,
            28.6177024
          ],
          [
            77.4222337,
            28.6176516
          ],
          [
            77.4221505,
            28.617600699999997
          ],
          [
            77.4220672,
            28.6175496
          ],
          [
            77.4219838,
            28.6174985
          ],
          [
            77.4219001,
            28.61744729999999
          ],
          [
            77.42181650000002,
            28.617396
          ],
          [
            77.4217329,
            28.617344800000005
          ],
          [
            77.4216496,
            28.617293699999994
          ],
          [
            77.4215661,
            28.617242599999997
          ],
          [
            77.4214657,
            28.617181
          ],
          [
            77.4213818,
            28.617129600000002
          ],
          [
            77.4212979,
            28.617077999999996
          ],
          [
            77.4212147,
            28.617025699999996
          ],
          [
            77.4211328,
            28.616971799999998
          ],
          [
            77.4210523,
            28.616916299999996
          ],
          [
            77.4209733,
            28.616859099999992
          ],
          [
            77.4208956,
            28.616801299999995
          ],
          [
            77.420818,
            28.616743099999997
          ],
          [
            77.4207402,
            28.616684899999996
          ],
          [
            77.4206622,
            28.616626499999995
          ],
          [
            77.4205842,
            28.6165682
          ],
          [
            77.4204906,
            28.6164982
          ],
          [
            77.4204125,
            28.616439899999996
          ],
          [
            77.4203365,
            28.616383199999994
          ],
          [
            77.4202712,
            28.6163344
          ],
          [
            77.4202246,
            28.6162961
          ],
          [
            77.4202026,
            28.6162617
          ],
          [
            77.4202056,
            28.6162213
          ],
          [
            77.4202247,
            28.616166699999994
          ],
          [
            77.4202507,
            28.6160965
          ],
          [
            77.4202797,
            28.616017400000004
          ],
          [
            77.4203093,
            28.615934500000005
          ],
          [
            77.4203385,
            28.615849800000003
          ],
          [
            77.4203732,
            28.615747999999996
          ],
          [
            77.4204022,
            28.615663199999997
          ],
          [
            77.42043130000002,
            28.615578299999996
          ],
          [
            77.4204604,
            28.615492599999996
          ],
          [
            77.4204896,
            28.615406899999996
          ],
          [
            77.42051890000002,
            28.615321
          ],
          [
            77.4205481,
            28.615235199999997
          ],
          [
            77.4205773,
            28.6151492
          ],
          [
            77.42060650000002,
            28.615063400000007
          ],
          [
            77.4206356,
            28.6149778
          ],
          [
            77.4206648,
            28.614891800000002
          ],
          [
            77.4206941,
            28.6148056
          ],
          [
            77.4207293,
            28.6147021
          ],
          [
            77.4207586,
            28.614616
          ],
          [
            77.4207878,
            28.6145298
          ],
          [
            77.4208171,
            28.6144437
          ],
          [
            77.4208463,
            28.6143577
          ],
          [
            77.4208756,
            28.6142716
          ],
          [
            77.4209048,
            28.6141856
          ],
          [
            77.4209339,
            28.614099899999996
          ],
          [
            77.4209631,
            28.614013899999996
          ],
          [
            77.4209925,
            28.613927599999997
          ],
          [
            77.4210218,
            28.6138413
          ],
          [
            77.4210511,
            28.6137552
          ],
          [
            77.4210803,
            28.6136691
          ],
          [
            77.4211147,
            28.61356779999999
          ],
          [
            77.42114,
            28.6134934
          ],
          [
            77.421159,
            28.6134372
          ],
          [
            77.4211705,
            28.613403299999998
          ],
          [
            77.4211748,
            28.613390799999998
          ],
          [
            77.4211749,
            28.613390899999995
          ],
          [
            77.4211743,
            28.613393200000004
          ],
          [
            77.421174,
            28.613394200000002
          ],
          [
            77.4211737,
            28.613395199999996
          ],
          [
            77.4211734,
            28.613395999999998
          ],
          [
            77.4211732,
            28.6133963
          ],
          [
            77.4211732,
            28.613396499999997
          ],
          [
            77.4211731,
            28.613396699999996
          ],
          [
            77.4211731,
            28.613396799999993
          ],
          [
            77.421173,
            28.613396899999998
          ],
          [
            77.421173,
            28.613396899999998
          ],
          [
            77.421173,
            28.613396999999992
          ],
          [
            77.4211729,
            28.613396999999992
          ],
          [
            77.4211729,
            28.613396999999992
          ],
          [
            77.4211729,
            28.613396999999992
          ],
          [
            77.4211729,
            28.613396999999992
          ],
          [
            77.4211729,
            28.61339709999999
          ],
          [
            77.4211729,
            28.61339709999999
          ],
          [
            77.4211729,
            28.61339709999999
          ],
          [
            77.4211729,
            28.61339709999999
          ],
          [
            77.4211729,
            28.61339709999999
          ],
          [
            77.4211729,
            28.61339709999999
          ],
          [
            77.4211729,
            28.61339709999999
          ],
          [
            77.4211729,
            28.61339709999999
          ],
          [
            77.4211729,
            28.61339709999999
          ],
          [
            77.4211729,
            28.61339709999999
          ],
          [
            77.4211729,
            28.61339709999999
          ],
          [
            77.4211729,
            28.61339709999999
          ],
          [
            77.4211729,
            28.61339709999999
          ],
          [
            77.4211729,
            28.61339709999999
          ],
          [
            77.4211729,
            28.61339709999999
          ],
          [
            77.4211729,
            28.61339709999999
          ]
        ]
      }
    },
    {
      "type": "Feature",
      "properties": {
        "vehicle_id": "drone-5",
        "phase": "generated_safe_return_and_land",
        "passed": true
      },
      "geometry": {
        "type": "LineString",
        "coordinates": [
          [
            77.4240664,
            28.6152252
          ],
          [
            77.4240654,
            28.6152239
          ],
          [
            77.4240569,
            28.615218800000005
          ],
          [
            77.4240366,
            28.615206399999998
          ],
          [
            77.4240005,
            28.615183299999998
          ],
          [
            77.4239471,
            28.6151494
          ],
          [
            77.42387920000002,
            28.6151066
          ],
          [
            77.4238028,
            28.615058499999993
          ],
          [
            77.4237237,
            28.6150088
          ],
          [
            77.4236436,
            28.614958399999995
          ],
          [
            77.4235623,
            28.6149072
          ],
          [
            77.4234803,
            28.6148554
          ],
          [
            77.4233982,
            28.614803500000004
          ],
          [
            77.4232992,
            28.614741099999993
          ],
          [
            77.4232168,
            28.614689
          ],
          [
            77.423134,
            28.614636600000004
          ],
          [
            77.4230512,
            28.614584299999997
          ],
          [
            77.42296820000001,
            28.6145318
          ],
          [
            77.42288540000001,
            28.614479499999998
          ],
          [
            77.4228023,
            28.614427000000003
          ],
          [
            77.4227194,
            28.614374600000005
          ],
          [
            77.4226364,
            28.614322099999992
          ],
          [
            77.4225534,
            28.6142697
          ],
          [
            77.4224705,
            28.6142173
          ],
          [
            77.4223877,
            28.614164999999996
          ],
          [
            77.4222879,
            28.6141019
          ],
          [
            77.4222047,
            28.614049299999998
          ],
          [
            77.42212150000002,
            28.6139967
          ],
          [
            77.4220384,
            28.613944200000002
          ],
          [
            77.4219554,
            28.613891799999994
          ],
          [
            77.4218724,
            28.613839399999996
          ],
          [
            77.4217894,
            28.613786899999997
          ],
          [
            77.4217063,
            28.61373439999999
          ],
          [
            77.4216233,
            28.6136819
          ],
          [
            77.4215402,
            28.613629400000004
          ],
          [
            77.4214574,
            28.6135771
          ],
          [
            77.4213749,
            28.613525
          ],
          [
            77.4212834,
            28.613467200000002
          ],
          [
            77.4212233,
            28.6134294
          ],
          [
            77.4211847,
            28.613405099999998
          ],
          [
            77.4211679,
            28.613394499999995
          ],
          [
            77.421166,
            28.613393099999993
          ],
          [
            77.4211685,
            28.613394399999997
          ],
          [
            77.4211697,
            28.613395
          ],
          [
            77.4211707,
            28.6133955
          ],
          [
            77.42117150000001,
            28.6133961
          ],
          [
            77.4211719,
            28.613396399999996
          ],
          [
            77.4211721,
            28.613396499999997
          ],
          [
            77.4211722,
            28.6133966
          ],
          [
            77.4211723,
            28.613396699999996
          ],
          [
            77.4211724,
            28.613396799999997
          ],
          [
            77.4211725,
            28.613396800000004
          ],
          [
            77.4211725,
            28.6133969
          ],
          [
            77.4211725,
            28.6133969
          ],
          [
            77.4211726,
            28.613396899999994
          ],
          [
            77.4211726,
            28.613396899999994
          ],
          [
            77.4211726,
            28.613396999999992
          ],
          [
            77.4211726,
            28.613396999999992
          ],
          [
            77.4211726,
            28.613396999999992
          ],
          [
            77.4211726,
            28.613396999999992
          ],
          [
            77.4211726,
            28.613396999999992
          ],
          [
            77.4211726,
            28.613396999999992
          ],
          [
            77.4211726,
            28.613396999999992
          ],
          [
            77.4211726,
            28.613396999999992
          ],
          [
            77.4211726,
            28.613396999999992
          ],
          [
            77.4211726,
            28.613396999999992
          ],
          [
            77.4211726,
            28.613396999999992
          ],
          [
            77.4211726,
            28.613396999999992
          ],
          [
            77.42117270000001,
            28.613397
          ],
          [
            77.42117270000001,
            28.613397
          ],
          [
            77.42117270000001,
            28.613397
          ],
          [
            77.4211726,
            28.613396999999992
          ],
          [
            77.4211726,
            28.613396999999992
          ],
          [
            77.4211726,
            28.613396999999992
          ]
        ]
      }
    }
  ]
}
