<?xml version="1.0" encoding="UTF-8"?>
<kml xmlns="http://www.opengis.net/kml/2.2">
<Document>
<name>Stage 21 verified five-drone mission</name>

    <Style id="boundary">
      <LineStyle>
        <color>ffffffff</color>
        <width>4</width>
      </LineStyle>
      <PolyStyle>
        <color>1800ffff</color>
      </PolyStyle>
    </Style>


    <Style id="exclusion">
      <LineStyle>
        <color>ff0000ff</color>
        <width>4</width>
      </LineStyle>
      <PolyStyle>
        <color>550000ff</color>
      </PolyStyle>
    </Style>


    <Style id="partition">
      <LineStyle>
        <color>ffaaaaaa</color>
        <width>2</width>
      </LineStyle>
      <PolyStyle>
        <color>1000ffff</color>
      </PolyStyle>
    </Style>


    <Style id="home">
      <IconStyle>
        <scale>1.4</scale>
      </IconStyle>
      <LabelStyle>
        <scale>1.2</scale>
      </LabelStyle>
    </Style>


        <Style id="drone-1">
          <LineStyle>
            <color>ff0000ff</color>
            <width>4</width>
          </LineStyle>
        </Style>


        <Style id="drone-2">
          <LineStyle>
            <color>ff00ff00</color>
            <width>4</width>
          </LineStyle>
        </Style>


        <Style id="drone-3">
          <LineStyle>
            <color>ffff0000</color>
            <width>4</width>
          </LineStyle>
        </Style>


        <Style id="drone-4">
          <LineStyle>
            <color>ff00ffff</color>
            <width>4</width>
          </LineStyle>
        </Style>


        <Style id="drone-5">
          <LineStyle>
            <color>ffff00ff</color>
            <width>4</width>
          </LineStyle>
        </Style>


        <Placemark>
          <name>BOUNDARY 1</name>
          <styleUrl>#boundary</styleUrl>
          <Polygon>
            <outerBoundaryIs>
              <LinearRing>
                <coordinates>
                  77.421037745,28.613005296,0.000 77.424370887,28.614821601,0.000 77.428192256,28.616688498,0.000 77.425804409,28.620740396,0.000 77.423484272,28.624865972,0.000 77.421904643,28.624380658,0.000 77.420977895,28.623186109,0.000 77.419165800,28.620973921,0.000 77.417581995,28.618970566,0.000 77.421037745,28.613005296,0.000
                </coordinates>
              </LinearRing>
            </outerBoundaryIs>
          </Polygon>
        </Placemark>


            <Placemark>
              <name>NO_GO: No-Go 1 1</name>
              <styleUrl>#exclusion</styleUrl>
              <Polygon>
                <outerBoundaryIs>
                  <LinearRing>
                    <coordinates>
                      77.420115485,28.621894334,0.000 77.420157677,28.621851525,0.000 77.420215774,28.621820962,0.000 77.420287929,28.621776135,0.000 77.420360090,28.621731312,0.000 77.420418331,28.621700713,0.000 77.420476561,28.621670119,0.000 77.420535695,28.621652774,0.000 77.420593910,28.621622187,0.000 77.420651309,28.621578338,0.000 77.420709868,28.621547670,0.000 77.420769100,28.621516840,0.000 77.420829403,28.621485763,0.000 77.420889174,28.621454835,0.000 77.420950064,28.621450495,0.000 77.421013155,28.621485897,0.000 77.421061056,28.621522405,0.000 77.421079293,28.621574394,0.000 77.421143245,28.621623151,0.000 77.421190692,28.621659933,0.000 77.421238691,28.621710173,0.000 77.421286087,28.621747106,0.000 77.421317715,28.621771752,0.000 77.421365892,28.621822162,0.000 77.421384082,28.621874662,0.000 77.421432858,28.621924987,0.000 77.421481689,28.621975368,0.000 77.421529704,28.622012405,0.000 77.421548340,28.622064983,0.000 77.421614116,28.622127419,0.000 77.421663208,28.622177965,0.000 77.421696195,28.622216224,0.000 77.421759693,28.622252316,0.000 77.421821480,28.622261441,0.000 77.421884942,28.622297653,0.000 77.421946598,28.622306926,0.000 77.422008435,28.622316057,0.000 77.422071390,28.622338523,0.000 77.422134221,28.622361126,0.000 77.422197064,28.622383748,0.000 77.422274048,28.622391929,0.000 77.422335862,28.622401155,0.000 77.422397687,28.622410383,0.000 77.422459525,28.622419614,0.000 77.422520288,28.622415435,0.000 77.422599528,28.622450451,0.000 77.422661410,28.622459689,0.000 77.422709210,28.622483396,0.000 77.422786322,28.622491595,0.000 77.422848247,28.622500840,0.000 77.422893668,28.622498078,0.000 77.422969739,28.622492779,0.000 77.423061052,28.622486347,0.000 77.423167568,28.622478845,0.000 77.423228428,28.622474560,0.000 77.423288116,28.622456893,0.000 77.423347792,28.622439230,0.000 77.423407455,28.622421573,0.000 77.423467145,28.622403710,0.000 77.423525634,28.622372477,0.000 77.423585216,28.622355066,0.000 77.423643614,28.622324336,0.000 77.423686821,28.622294590,0.000 77.423746409,28.622277230,0.000 77.423806007,28.622259950,0.000 77.423864426,28.622229323,0.000 77.423924064,28.622212131,0.000 77.423983674,28.622194556,0.000 77.424043260,28.622176899,0.000 77.424102829,28.622159239,0.000 77.424162373,28.622141546,0.000 77.424221897,28.622123845,0.000 77.424282651,28.622119573,0.000 77.424342120,28.622101827,0.000 77.424402843,28.622097539,0.000 77.424477499,28.622078826,0.000 77.424536959,28.622061189,0.000 77.424595103,28.622030123,0.000 77.424639345,28.622013547,0.000 77.424713933,28.621994877,0.000 77.424771995,28.621963850,0.000 77.424831451,28.621946329,0.000 77.424892228,28.621942217,0.000 77.424951681,28.621924710,0.000 77.425012469,28.621920596,0.000 77.425071919,28.621903089,0.000 77.425147877,28.621897915,0.000 77.425208551,28.621893693,0.000 77.425225144,28.621906077,0.000 77.423431733,28.624767072,0.000 77.421808700,28.624070349,0.000 77.420706018,28.622670402,0.000 77.420115485,28.621894334,0.000
                    </coordinates>
                  </LinearRing>
                </outerBoundaryIs>
              </Polygon>
            </Placemark>


            <Placemark>
              <name>NO_GO: No-Go 2 1</name>
              <styleUrl>#exclusion</styleUrl>
              <Polygon>
                <outerBoundaryIs>
                  <LinearRing>
                    <coordinates>
                      77.420729917,28.615183554,0.000 77.422071825,28.614881662,0.000 77.424243575,28.615495317,0.000 77.421146362,28.616845863,0.000 77.420336310,28.616241290,0.000 77.420729917,28.615183554,0.000
                    </coordinates>
                  </LinearRing>
                </outerBoundaryIs>
              </Polygon>
            </Placemark>


            <Placemark>
              <name>NO_GO: Tiny Isolated Island Exclusion 1</name>
              <styleUrl>#exclusion</styleUrl>
              <Polygon>
                <outerBoundaryIs>
                  <LinearRing>
                    <coordinates>
                      77.421970011,28.624305227,0.000 77.422505242,28.624469670,0.000 77.421894030,28.624207291,0.000 77.421970011,28.624305227,0.000
                    </coordinates>
                  </LinearRing>
                </outerBoundaryIs>
              </Polygon>
            </Placemark>


            <Placemark>
              <name>PARTITION_1 component 1</name>
              <styleUrl>#partition</styleUrl>
              <Polygon>
                <outerBoundaryIs>
                  <LinearRing>
                    <coordinates>
                      77.421451094,28.616712989,0.000 77.421146362,28.616845863,0.000 77.420525203,28.616382269,0.000 77.419329007,28.615954986,0.000 77.417581995,28.618970566,0.000 77.418767662,28.620470325,0.000 77.422201333,28.619251438,0.000 77.422820327,28.618011115,0.000 77.422542813,28.617102930,0.000 77.423630506,28.615762655,0.000 77.421451094,28.616712989,0.000
                    </coordinates>
                  </LinearRing>
                </outerBoundaryIs>
              </Polygon>
            </Placemark>


            <Placemark>
              <name>PARTITION_1 component 2</name>
              <styleUrl>#partition</styleUrl>
              <Polygon>
                <outerBoundaryIs>
                  <LinearRing>
                    <coordinates>
                      77.424468634,28.623115660,0.000 77.424483489,28.623089245,0.000 77.424467810,28.623114257,0.000 77.424468634,28.623115660,0.000
                    </coordinates>
                  </LinearRing>
                </outerBoundaryIs>
              </Polygon>
            </Placemark>


            <Placemark>
              <name>PARTITION_2 component 1</name>
              <styleUrl>#partition</styleUrl>
              <Polygon>
                <outerBoundaryIs>
                  <LinearRing>
                    <coordinates>
                      77.418767662,28.620470325,0.000 77.419165800,28.620973921,0.000 77.420977895,28.623186109,0.000 77.421904643,28.624380658,0.000 77.423484272,28.624865972,0.000 77.424468634,28.623115660,0.000 77.424467810,28.623114257,0.000 77.423431733,28.624767072,0.000 77.421808700,28.624070349,0.000 77.420706018,28.622670402,0.000 77.420115485,28.621894334,0.000 77.420157677,28.621851525,0.000 77.420215774,28.621820962,0.000 77.420287929,28.621776135,0.000 77.420360090,28.621731312,0.000 77.420418331,28.621700713,0.000 77.420476561,28.621670119,0.000 77.420535695,28.621652774,0.000 77.420593910,28.621622187,0.000 77.420651309,28.621578338,0.000 77.420709868,28.621547670,0.000 77.420769100,28.621516840,0.000 77.420829403,28.621485763,0.000 77.420889174,28.621454835,0.000 77.420950064,28.621450495,0.000 77.421013155,28.621485897,0.000 77.421061056,28.621522405,0.000 77.421079293,28.621574394,0.000 77.421143245,28.621623151,0.000 77.421190692,28.621659933,0.000 77.421238691,28.621710173,0.000 77.421286087,28.621747106,0.000 77.421317715,28.621771752,0.000 77.421365892,28.621822162,0.000 77.421384082,28.621874662,0.000 77.421432858,28.621924987,0.000 77.421481689,28.621975368,0.000 77.421529704,28.622012405,0.000 77.421548340,28.622064983,0.000 77.421614116,28.622127419,0.000 77.421663208,28.622177965,0.000 77.421696195,28.622216224,0.000 77.421759693,28.622252316,0.000 77.421821480,28.622261441,0.000 77.421884942,28.622297653,0.000 77.421946598,28.622306926,0.000 77.422008435,28.622316057,0.000 77.422071390,28.622338523,0.000 77.422134221,28.622361126,0.000 77.422197064,28.622383748,0.000 77.422274048,28.622391929,0.000 77.422335862,28.622401155,0.000 77.422397687,28.622410383,0.000 77.422459525,28.622419614,0.000 77.422520288,28.622415435,0.000 77.422599528,28.622450451,0.000 77.422661410,28.622459689,0.000 77.422709210,28.622483396,0.000 77.422786322,28.622491595,0.000 77.422848247,28.622500840,0.000 77.422893668,28.622498078,0.000 77.422969739,28.622492779,0.000 77.423061052,28.622486347,0.000 77.423167568,28.622478845,0.000 77.423228428,28.622474560,0.000 77.423288116,28.622456893,0.000 77.423347792,28.622439230,0.000 77.423407455,28.622421573,0.000 77.423467145,28.622403710,0.000 77.423525634,28.622372477,0.000 77.423585216,28.622355066,0.000 77.423643614,28.622324336,0.000 77.423686821,28.622294590,0.000 77.423746409,28.622277230,0.000 77.423806007,28.622259950,0.000 77.423864426,28.622229323,0.000 77.423924064,28.622212131,0.000 77.423936351,28.622208508,0.000 77.422201333,28.619251438,0.000 77.418767662,28.620470325,0.000
                    </coordinates>
                  </LinearRing>
                </outerBoundaryIs>
              </Polygon>
            </Placemark>


            <Placemark>
              <name>PARTITION_3 component 1</name>
              <styleUrl>#partition</styleUrl>
              <Polygon>
                <outerBoundaryIs>
                  <LinearRing>
                    <coordinates>
                      77.424387576,28.614829755,0.000 77.424370887,28.614821601,0.000 77.421037745,28.613005296,0.000 77.419329007,28.615954986,0.000 77.420525203,28.616382269,0.000 77.420336310,28.616241290,0.000 77.420729917,28.615183554,0.000 77.422071825,28.614881662,0.000 77.423921346,28.615404270,0.000 77.424387576,28.614829755,0.000
                    </coordinates>
                  </LinearRing>
                </outerBoundaryIs>
              </Polygon>
            </Placemark>


            <Placemark>
              <name>PARTITION_4 component 1</name>
              <styleUrl>#partition</styleUrl>
              <Polygon>
                <outerBoundaryIs>
                  <LinearRing>
                    <coordinates>
                      77.422201333,28.619251438,0.000 77.423936351,28.622208508,0.000 77.423983674,28.622194556,0.000 77.424043260,28.622176899,0.000 77.424102829,28.622159239,0.000 77.424162373,28.622141546,0.000 77.424221897,28.622123845,0.000 77.424282651,28.622119573,0.000 77.424342120,28.622101827,0.000 77.424402843,28.622097539,0.000 77.424477499,28.622078826,0.000 77.424536959,28.622061189,0.000 77.424595103,28.622030123,0.000 77.424639345,28.622013547,0.000 77.424713933,28.621994877,0.000 77.424771995,28.621963850,0.000 77.424831451,28.621946329,0.000 77.424892228,28.621942217,0.000 77.424951681,28.621924710,0.000 77.425012469,28.621920596,0.000 77.425071919,28.621903089,0.000 77.425147877,28.621897915,0.000 77.425153692,28.621897510,0.000 77.425804409,28.620740396,0.000 77.426869908,28.618932410,0.000 77.422820327,28.618011115,0.000 77.422201333,28.619251438,0.000
                    </coordinates>
                  </LinearRing>
                </outerBoundaryIs>
              </Polygon>
            </Placemark>


            <Placemark>
              <name>PARTITION_5 component 1</name>
              <styleUrl>#partition</styleUrl>
              <Polygon>
                <outerBoundaryIs>
                  <LinearRing>
                    <coordinates>
                      77.422820327,28.618011115,0.000 77.426869908,28.618932410,0.000 77.428192256,28.616688498,0.000 77.424387576,28.614829755,0.000 77.423921346,28.615404270,0.000 77.424243575,28.615495317,0.000 77.423630506,28.615762655,0.000 77.422542813,28.617102930,0.000 77.422820327,28.618011115,0.000
                    </coordinates>
                  </LinearRing>
                </outerBoundaryIs>
              </Polygon>
            </Placemark>


        <Placemark>
          <name>drone-1 verified route</name>
          <styleUrl>#drone-1</styleUrl>
          <LineString>
            <tessellate>1</tessellate>
            <altitudeMode>relativeToGround</altitudeMode>
            <coordinates>
              77.421172716,28.613397218,20.000 77.419904989,28.616160730,20.000 77.419443152,28.615995760,20.000 77.417724756,28.618961954,20.000 77.417804026,28.619062224,20.000 77.419556958,28.616036412,20.000 77.419670764,28.616077064,20.000 77.417883296,28.619162495,20.000 77.417962566,28.619262765,20.000 77.419784570,28.616117716,20.000 77.419898377,28.616158368,20.000 77.418041836,28.619363036,20.000 77.418121107,28.619463306,20.000 77.420012183,28.616199019,20.000 77.420125989,28.616239671,20.000 77.418200377,28.619563576,20.000 77.418279648,28.619663847,20.000 77.420227378,28.616301758,20.000 77.420323273,28.616373329,20.000 77.418358919,28.619764117,20.000 77.418438190,28.619864387,20.000 77.420419168,28.616444900,20.000 77.420515063,28.616516470,20.000 77.418517461,28.619964657,20.000 77.418596733,28.620064927,20.000 77.420610958,28.616588041,20.000 77.420706854,28.616659611,20.000 77.418676004,28.620165197,20.000 77.418755276,28.620265467,20.000 77.420802749,28.616731182,20.000 77.420898645,28.616802752,20.000 77.418834548,28.620365737,20.000 77.418948508,28.620406131,20.000 77.420994541,28.616874322,20.000 77.421090437,28.616945893,20.000 77.419121431,28.620344749,20.000 77.419294353,28.620283367,20.000 77.421239263,28.616926092,20.000 77.421423040,28.616845959,20.000 77.419467275,28.620221985,20.000 77.419640197,28.620160603,20.000 77.421606816,28.616765825,20.000 77.421790592,28.616685691,20.000 77.419813119,28.620099220,20.000 77.419986040,28.620037837,20.000 77.421974368,28.616605557,20.000 77.422158143,28.616525423,20.000 77.420158961,28.619976454,20.000 77.420331882,28.619915071,20.000 77.422341919,28.616445288,20.000 77.422525693,28.616365153,20.000 77.420504803,28.619853688,20.000 77.420677724,28.619792304,20.000 77.422709468,28.616285018,20.000 77.422893242,28.616204883,20.000 77.420850644,28.619730920,20.000 77.421023564,28.619669536,20.000 77.423077016,28.616124748,20.000 77.423120407,28.616105827,20.000 77.423120407,28.616105827,20.000 77.422917966,28.616455303,20.000 77.423246041,28.616051043,20.000 77.423478857,28.615949522,20.000 77.422542813,28.617102930,20.000 77.422542813,28.617102930,20.000 77.421064393,28.619655043,20.000 77.421237312,28.619593658,20.000 77.422590246,28.617258161,20.000 77.422637680,28.617413392,20.000 77.421410232,28.619532274,20.000 77.421583151,28.619470889,20.000 77.422685114,28.617568623,20.000 77.422732548,28.617723854,20.000 77.421756071,28.619409504,20.000 77.421928990,28.619348119,20.000 77.422779983,28.617879085,20.000 77.422692627,28.618267001,20.000 77.422101908,28.619286734,20.000 77.422201333,28.619251438,20.000 77.419904989,28.616160730,20.000 77.421172716,28.613397218,20.000 77.421172716,28.613397218,0.000
            </coordinates>
          </LineString>
        </Placemark>


        <Placemark>
          <name>drone-2 verified route</name>
          <styleUrl>#drone-2</styleUrl>
          <LineString>
            <tessellate>1</tessellate>
            <altitudeMode>relativeToGround</altitudeMode>
            <coordinates>
              77.421172716,28.613397218,20.000 77.420193974,28.616276827,20.000 77.422201333,28.619251438,20.000 77.422201333,28.619251438,20.000 77.419265825,28.620911249,20.000 77.418884457,28.620428867,20.000 77.419000905,28.620387532,20.000 77.420087780,28.621762275,20.000 77.420190875,28.621704048,20.000 77.419117354,28.620346196,20.000 77.419233801,28.620304861,20.000 77.420290888,28.621641923,20.000 77.420293305,28.621640422,20.000 77.420355570,28.621607709,20.000 77.420396123,28.621586402,20.000 77.419350249,28.620263526,20.000 77.419466697,28.620222190,20.000 77.420509152,28.621540740,20.000 77.420579286,28.621490184,20.000 77.420606884,28.621475731,20.000 77.419583145,28.620180855,20.000 77.419699592,28.620139519,20.000 77.420712479,28.621420667,20.000 77.420818377,28.621365986,20.000 77.419816040,28.620098183,20.000 77.419932487,28.620056847,20.000 77.420948549,28.621342007,20.000 77.420981186,28.621339681,20.000 77.421086556,28.621398808,20.000 77.421167849,28.621460767,20.000 77.421167849,28.621460767,20.000 77.421244183,28.621557315,20.000 77.421278563,28.621583967,20.000 77.421405680,28.621695887,20.000 77.421475864,28.621769324,20.000 77.421493924,28.621821449,20.000 77.421526089,28.621854635,20.000 77.421475864,28.621769324,20.000 77.421444915,28.621730179,20.000 77.421440090,28.621731891,20.000 77.421405680,28.621695887,20.000 77.421345632,28.621649095,20.000 77.421373098,28.621639345,20.000 77.421301282,28.621548511,20.000 77.421254328,28.621565179,20.000 77.421179446,28.621475434,20.000 77.421229467,28.621457677,20.000 77.421157651,28.621366844,20.000 77.421107630,28.621384600,20.000 77.421035814,28.621293766,20.000 77.421085835,28.621276010,20.000 77.421014020,28.621185176,20.000 77.420963999,28.621202932,20.000 77.420892184,28.621112098,20.000 77.420942204,28.621094342,20.000 77.420870389,28.621003508,20.000 77.420820368,28.621021264,20.000 77.420748553,28.620930430,20.000 77.420798574,28.620912674,20.000 77.420726759,28.620821840,20.000 77.420676738,28.620839596,20.000 77.420604923,28.620748762,20.000 77.420654944,28.620731006,20.000 77.420583129,28.620640172,20.000 77.420533109,28.620657928,20.000 77.420461294,28.620567094,20.000 77.420511315,28.620549337,20.000 77.420439500,28.620458503,20.000 77.420389480,28.620476259,20.000 77.420317665,28.620385425,20.000 77.420367686,28.620367669,20.000 77.420295872,28.620276834,20.000 77.420245851,28.620294591,20.000 77.420174037,28.620203756,20.000 77.420224058,28.620186000,20.000 77.420152244,28.620095166,20.000 77.420102223,28.620112922,20.000 77.420030409,28.620022087,20.000 77.420080430,28.620004331,20.000 77.420080430,28.620004331,20.000 77.420093684,28.619999626,20.000 77.420165498,28.620090461,20.000 77.420152244,28.620095166,20.000 77.420224058,28.620186000,20.000 77.420237312,28.620181295,20.000 77.420309126,28.620272129,20.000 77.420295872,28.620276834,20.000 77.420367686,28.620367669,20.000 77.420380941,28.620362964,20.000 77.420452755,28.620453798,20.000 77.420439500,28.620458503,20.000 77.420511315,28.620549337,20.000 77.420524570,28.620544632,20.000 77.420596384,28.620635466,20.000 77.420583129,28.620640172,20.000 77.420654944,28.620731006,20.000 77.420668199,28.620726301,20.000 77.420740014,28.620817135,20.000 77.420726759,28.620821840,20.000 77.420798574,28.620912674,20.000 77.420811829,28.620907969,20.000 77.420883644,28.620998803,20.000 77.420870389,28.621003508,20.000 77.420942204,28.621094342,20.000 77.420955459,28.621089637,20.000 77.421027275,28.621180471,20.000 77.421014020,28.621185176,20.000 77.421085835,28.621276010,20.000 77.421099090,28.621271305,20.000 77.421170906,28.621362138,20.000 77.421157651,28.621366844,20.000 77.421229467,28.621457677,20.000 77.421242721,28.621452972,20.000 77.421314537,28.621543806,20.000 77.421301282,28.621548511,20.000 77.421373098,28.621639345,20.000 77.421386353,28.621634640,20.000 77.421458169,28.621725473,20.000 77.421444915,28.621730179,20.000 77.421516731,28.621821012,20.000 77.421529986,28.621816307,20.000 77.421601802,28.621907140,20.000 77.421588547,28.621911846,20.000 77.421636468,28.621950986,20.000 77.421636469,28.621950986,20.000 77.421636469,28.621950986,20.000 77.421780765,28.622135536,20.000 77.421783699,28.622137203,20.000 77.421783699,28.622137203,20.000 77.421636468,28.621950986,20.000 77.421598556,28.621903035,20.000 77.422262032,28.622281626,20.000 77.422530290,28.622306176,20.000 77.421413414,28.621668866,20.000 77.421228272,28.621434697,20.000 77.422900691,28.622389009,20.000 77.423101252,28.622374929,20.000 77.421043132,28.621200527,20.000 77.420857992,28.620966357,20.000 77.423276217,28.622346244,20.000 77.423422351,28.622301108,20.000 77.420672853,28.620732187,20.000 77.420487715,28.620498016,20.000 77.423551954,28.622246539,20.000 77.423628143,28.622197695,20.000 77.423670145,28.622185458,20.000 77.420302577,28.620263846,20.000 77.420117441,28.620029674,20.000 77.423805625,28.622134242,20.000 77.423823276,28.622015793,20.000 77.420214717,28.619956662,20.000 77.420353567,28.619907373,20.000 77.423709912,28.621822588,20.000 77.423596548,28.621629382,20.000 77.420492417,28.619858085,20.000 77.420631266,28.619808796,20.000 77.423483185,28.621436175,20.000 77.423369822,28.621242969,20.000 77.420770116,28.619759506,20.000 77.420908965,28.619710217,20.000 77.423256460,28.621049763,20.000 77.423143099,28.620856556,20.000 77.421047814,28.619660928,20.000 77.421186663,28.619611638,20.000 77.423029737,28.620663350,20.000 77.422916376,28.620470143,20.000 77.421325512,28.619562349,20.000 77.421464360,28.619513059,20.000 77.422803016,28.620276936,20.000 77.422689656,28.620083729,20.000 77.421603209,28.619463769,20.000 77.421742057,28.619414479,20.000 77.422576296,28.619890522,20.000 77.422462937,28.619697315,20.000 77.421880905,28.619365189,20.000 77.422019753,28.619315898,20.000 77.422349579,28.619504107,20.000 77.422236220,28.619310900,20.000 77.422158601,28.619266608,20.000 77.422201333,28.619251438,20.000 77.422201333,28.619251438,20.000 77.422201333,28.619251438,20.000 77.420193974,28.616276827,20.000 77.421172716,28.613397218,20.000 77.421172716,28.613397218,0.000
            </coordinates>
          </LineString>
        </Placemark>


        <Placemark>
          <name>drone-3 verified route</name>
          <styleUrl>#drone-3</styleUrl>
          <LineString>
            <tessellate>1</tessellate>
            <altitudeMode>relativeToGround</altitudeMode>
            <coordinates>
              77.421172716,28.613397218,20.000 77.421086439,28.613159051,20.000 77.419443152,28.615995760,20.000 77.419556958,28.616036412,20.000 77.421190835,28.613215941,20.000 77.421295232,28.613272831,20.000 77.419670764,28.616077064,20.000 77.419784570,28.616117716,20.000 77.421399628,28.613329721,20.000 77.421504025,28.613386611,20.000 77.419898377,28.616158368,20.000 77.419997001,28.616193597,20.000 77.419997001,28.616193597,20.000 77.420274432,28.615714691,20.000 77.420084578,28.616224879,20.000 77.420198202,28.616265465,20.000 77.420634376,28.615093342,20.000 77.420634376,28.615093342,20.000 77.420675607,28.615084067,20.000 77.420647660,28.615070411,20.000 77.420703357,28.614974264,20.000 77.420848484,28.615045175,20.000 77.421021362,28.615006283,20.000 77.420759054,28.614878118,20.000 77.420814750,28.614781971,20.000 77.421194238,28.614967391,20.000 77.421367115,28.614928498,20.000 77.420870447,28.614685824,20.000 77.420926144,28.614589677,20.000 77.421539992,28.614889606,20.000 77.421712868,28.614850713,20.000 77.420981840,28.614493530,20.000 77.421037537,28.614397383,20.000 77.421885745,28.614811820,20.000 77.422058621,28.614772927,20.000 77.421093233,28.614301236,20.000 77.421148929,28.614205089,20.000 77.422615386,28.614921598,20.000 77.423214155,28.615090790,20.000 77.421204625,28.614108942,20.000 77.421260321,28.614012795,20.000 77.423812927,28.615259979,20.000 77.424046100,28.615250543,20.000 77.421316017,28.613916647,20.000 77.421371713,28.613820500,20.000 77.424117785,28.615162208,20.000 77.424189471,28.615073873,20.000 77.421427409,28.613724353,20.000 77.421483104,28.613628206,20.000 77.424261156,28.614985538,20.000 77.423784528,28.614629310,20.000 77.421538800,28.613532059,20.000 77.421594495,28.613435912,20.000 77.421172716,28.613397218,20.000 77.421172716,28.613397218,0.000
            </coordinates>
          </LineString>
        </Placemark>


        <Placemark>
          <name>drone-4 verified route</name>
          <styleUrl>#drone-4</styleUrl>
          <LineString>
            <tessellate>1</tessellate>
            <altitudeMode>relativeToGround</altitudeMode>
            <coordinates>
              77.421172716,28.613397218,20.000 77.420193974,28.616276827,20.000 77.421128575,28.616974356,20.000 77.422820327,28.618011115,20.000 77.422820328,28.618011115,20.000 77.426747988,28.618904675,20.000 77.426626938,28.618877138,20.000 77.424975063,28.621814567,20.000 77.424927206,28.621817805,20.000 77.424825240,28.621838188,20.000 77.426505889,28.618849600,20.000 77.426384840,28.618822063,20.000 77.424655654,28.621896951,20.000 77.424598472,28.621911264,20.000 77.424539073,28.621933518,20.000 77.424481764,28.621963366,20.000 77.426263791,28.618794525,20.000 77.426142742,28.618766987,20.000 77.424327858,28.621994246,20.000 77.424317201,28.621994998,20.000 77.424197062,28.622017005,20.000 77.424174794,28.622023627,20.000 77.426021692,28.618739450,20.000 77.425900643,28.618711912,20.000 77.424010876,28.622072310,20.000 77.423865576,28.622087886,20.000 77.425779595,28.618684374,20.000 77.425658546,28.618656835,20.000 77.423795858,28.621969066,20.000 77.423726140,28.621850246,20.000 77.425537497,28.618629297,20.000 77.425416448,28.618601759,20.000 77.423656423,28.621731426,20.000 77.423586705,28.621612606,20.000 77.425295399,28.618574220,20.000 77.425174351,28.618546682,20.000 77.423516988,28.621493786,20.000 77.423447271,28.621374966,20.000 77.425053302,28.618519143,20.000 77.424932254,28.618491604,20.000 77.423377554,28.621256146,20.000 77.423307837,28.621137326,20.000 77.424811205,28.618464065,20.000 77.424690157,28.618436526,20.000 77.423238121,28.621018506,20.000 77.423168404,28.620899686,20.000 77.424569108,28.618408987,20.000 77.424448060,28.618381447,20.000 77.423098688,28.620780866,20.000 77.423028972,28.620662046,20.000 77.424327012,28.618353908,20.000 77.424205963,28.618326368,20.000 77.422959256,28.620543225,20.000 77.422889540,28.620424405,20.000 77.424084915,28.618298829,20.000 77.423963867,28.618271289,20.000 77.422819825,28.620305584,20.000 77.422750109,28.620186764,20.000 77.423842819,28.618243749,20.000 77.423721771,28.618216209,20.000 77.422680394,28.620067943,20.000 77.422610679,28.619949123,20.000 77.423600723,28.618188669,20.000 77.423479675,28.618161129,20.000 77.422540964,28.619830302,20.000 77.422471249,28.619711482,20.000 77.423358628,28.618133589,20.000 77.423237580,28.618106048,20.000 77.422401535,28.619592661,20.000 77.422331820,28.619473840,20.000 77.423116532,28.618078508,20.000 77.422995484,28.618050967,20.000 77.422262106,28.619355019,20.000 77.422339341,28.618974905,20.000 77.422874437,28.618023426,20.000 77.422820328,28.618011115,20.000 77.422820328,28.618011115,20.000 77.422820327,28.618011115,20.000 77.421128575,28.616974356,20.000 77.420193974,28.616276827,20.000 77.421172716,28.613397218,20.000 77.421172716,28.613397218,0.000
            </coordinates>
          </LineString>
        </Placemark>


        <Placemark>
          <name>drone-5 verified route</name>
          <styleUrl>#drone-5</styleUrl>
          <LineString>
            <tessellate>1</tessellate>
            <altitudeMode>relativeToGround</altitudeMode>
            <coordinates>
              77.421172716,28.613397218,20.000 77.424066257,28.615225703,20.000 77.424066257,28.615225703,20.000 77.423996377,28.615311814,20.000 77.424569748,28.615473821,20.000 77.424569748,28.615473821,20.000 77.422820328,28.618011115,20.000 77.423289917,28.618117956,20.000 77.422776296,28.617867021,20.000 77.422731986,28.617722013,20.000 77.423762482,28.618225472,20.000 77.424235048,28.618332986,20.000 77.422687676,28.617577006,20.000 77.422643366,28.617431999,20.000 77.424707615,28.618440498,20.000 77.425180183,28.618548008,20.000 77.422599056,28.617286991,20.000 77.422554746,28.617141984,20.000 77.425652752,28.618655517,20.000 77.426125321,28.618763024,20.000 77.422595194,28.617038386,20.000 77.422666882,28.616950052,20.000 77.426597891,28.618870530,20.000 77.426786505,28.618839315,20.000 77.422738570,28.616861718,20.000 77.422810258,28.616773383,20.000 77.426842951,28.618743534,20.000 77.426899397,28.618647753,20.000 77.422881946,28.616685049,20.000 77.422953633,28.616596714,20.000 77.426955842,28.618551971,20.000 77.427012287,28.618456190,20.000 77.423025321,28.616508380,20.000 77.423097008,28.616420045,20.000 77.427068733,28.618360408,20.000 77.427125178,28.618264627,20.000 77.423168696,28.616331711,20.000 77.423240383,28.616243376,20.000 77.427181623,28.618168845,20.000 77.427238068,28.618073064,20.000 77.423312070,28.616155042,20.000 77.423383757,28.616066707,20.000 77.427294513,28.617977282,20.000 77.427350958,28.617881501,20.000 77.423455444,28.615978372,20.000 77.423568697,28.615910346,20.000 77.427407403,28.617785719,20.000 77.427463847,28.617689938,20.000 77.423702112,28.615852169,20.000 77.423835526,28.615793992,20.000 77.427520292,28.617594156,20.000 77.427576736,28.617498374,20.000 77.423968939,28.615735815,20.000 77.424102353,28.615677638,20.000 77.427633181,28.617402593,20.000 77.427689625,28.617306811,20.000 77.424235766,28.615619461,20.000 77.424369180,28.615561283,20.000 77.427746069,28.617211029,20.000 77.427802513,28.617115248,20.000 77.424502593,28.615503106,20.000 77.424867136,28.615557848,20.000 77.427858957,28.617019466,20.000 77.427915401,28.616923684,20.000 77.425465936,28.615727036,20.000 77.426064738,28.615896222,20.000 77.427971844,28.616827903,20.000 77.428028288,28.616732121,20.000 77.426663542,28.616065404,20.000 77.426663542,28.616065404,20.000 77.424315677,28.614918354,20.000 77.424243992,28.615006689,20.000 77.426064738,28.615896222,20.000 77.425465936,28.615727036,20.000 77.424172306,28.615095024,20.000 77.424100621,28.615183359,20.000 77.424867136,28.615557848,20.000 77.424569748,28.615473821,20.000 77.424268338,28.615388657,20.000 77.424028935,28.615271694,20.000 77.423996377,28.615311814,20.000 77.424066257,28.615225703,20.000 77.424066257,28.615225703,20.000 77.421172716,28.613397218,20.000 77.421172716,28.613397218,0.000
            </coordinates>
          </LineString>
        </Placemark>


    <Placemark>
      <name>HOME</name>
      <styleUrl>#home</styleUrl>
      <Point>
        <coordinates>
          77.421172716,
          28.613397218,
          0.000
        </coordinates>
      </Point>
    </Placemark>

</Document>
</kml>
